IRIDIUM 921 [-]         
1 24873U 97034E   23305.78582167  .00019480  00000+0  72936-3 0  9995
2 24873  86.3900  39.9248 0006140  53.8383 306.3431 15.27161588440202
IRIDIUM 26 [-]          
1 24903U 97043A   23305.87670619  .00000535  00000+0  17712-3 0  9991
2 24903  86.3998 359.5565 0001965  94.1124 266.0297 14.36062023371564
IRIDIUM 22 [-]          
1 24907U 97043E   23305.68730866  .00000533  00000+0  18043-3 0  9991
2 24907  86.4004   2.6895 0002173  91.7075 268.4370 14.34969041371639
DUMMY MASS 1 [-]        
1 24925U 97048A   23305.78828292  .00000746  00000+0  82399-4 0  9990
2 24925  86.3373  49.4700 0009227  89.2184 271.0098 14.85902907416980
DUMMY MASS 2 [-]        
1 24926U 97048B   23305.78799435  .00000747  00000+0  82919-4 0  9996
2 24926  86.3371  50.9732 0010013  97.4783 262.7579 14.85663971416775
IRIDIUM 29 [-]          
1 24944U 97051A   23305.76254470  .00000483  00000+0  16133-3 0  9994
2 24944  86.4004  32.6195 0002275  87.9916 272.1541 14.35424265368116
IRIDIUM 33 [-]          
1 24946U 97051C   23305.79104009  .00000455  00000+0  15562-3 0  9995
2 24946  86.3920  31.8814 0007034 199.6909 160.4016 14.34162082367675
IRIDIUM 28 [-]          
1 24948U 97051E   23305.77755659  .00000624  00000+0  20661-3 0  9992
2 24948  86.4011  30.4712 0001829 102.5544 257.5857 14.36365569368630
